[{"OBJECT_NAME":"STARLINK-30070","OBJECT_ID":"2023-067V","EPOCH":"2026-03-09T21:56:43.677024","MEAN_MOTION":15.27573671,"ECCENTRICITY":0.00011029,"INCLINATION":43.0037,"RA_OF_ASC_NODE":269.8522,"ARG_OF_PERICENTER":281.1267,"MEAN_ANOMALY":78.9461,"EPHEMERIS_TYPE":0,"CLASSIFICATION_TYPE":"U","NORAD_CAT_ID":56707,"ELEMENT_SET_NO":999,"REV_AT_EPOCH":15573,"BSTAR":-7.810323e-6,"MEAN_MOTION_DOT":-4.77e-6,"MEAN_MOTION_DDOT":0},{"OBJECT_NAME":"OBJECT A","OBJECT_ID":"2023-085A","EPOCH":"2026-03-09T21:42:39.504096","MEAN_MOTION":15.28003151,"ECCENTRICITY":0.00073195,"INCLINATION":97.4858,"RA_OF_ASC_NODE":178.2033,"ARG_OF_PERICENTER":32.2499,"MEAN_ANOMALY":327.9186,"EPHEMERIS_TYPE":0,"CLASSIFICATION_TYPE":"U","NORAD_CAT_ID":57004,"ELEMENT_SET_NO":999,"REV_AT_EPOCH":15139,"BSTAR":0.00063583858,"MEAN_MOTION_DOT":0.0001733,"MEAN_MOTION_DDOT":0}]
